<?xml version="1.0" encoding="UTF-8"?>
<ndm xmlns:xsi="http://www.w3.org/2001/XMLSchema-instance" xsi:noNamespaceSchemaLocation="https://sanaregistry.org/r/ndmxml_unqualified/ndmxml-2.0.0-master-2.0.xsd">
<omm id="CCSDS_OMM_VERS" version="2.0">
<header><CREATION_DATE/><ORIGINATOR/></header><body><segment><metadata><OBJECT_NAME>ORBCOMM FM05</OBJECT_NAME><OBJECT_ID>1997-084F</OBJECT_ID><CENTER_NAME>EARTH</CENTER_NAME><REF_FRAME>TEME</REF_FRAME><TIME_SYSTEM>UTC</TIME_SYSTEM><MEAN_ELEMENT_THEORY>SGP4</MEAN_ELEMENT_THEORY></metadata><data><meanElements><EPOCH>2024-08-31T12:31:31.246752</EPOCH><MEAN_MOTION>14.43485051</MEAN_MOTION><ECCENTRICITY>.0004272</ECCENTRICITY><INCLINATION>45.0156</INCLINATION><RA_OF_ASC_NODE>316.5963</RA_OF_ASC_NODE><ARG_OF_PERICENTER>235.0633</ARG_OF_PERICENTER><MEAN_ANOMALY>124.9816</MEAN_ANOMALY></meanElements><tleParameters><EPHEMERIS_TYPE>0</EPHEMERIS_TYPE><CLASSIFICATION_TYPE>U</CLASSIFICATION_TYPE><NORAD_CAT_ID>25117</NORAD_CAT_ID><ELEMENT_SET_NO>999</ELEMENT_SET_NO><REV_AT_EPOCH>39871</REV_AT_EPOCH><BSTAR>.15486E-2</BSTAR><MEAN_MOTION_DOT>.5148E-4</MEAN_MOTION_DOT><MEAN_MOTION_DDOT>0</MEAN_MOTION_DDOT></tleParameters></data></segment></body></omm>
<omm id="CCSDS_OMM_VERS" version="2.0">
<header><CREATION_DATE/><ORIGINATOR/></header><body><segment><metadata><OBJECT_NAME>ORBCOMM FM06</OBJECT_NAME><OBJECT_ID>1997-084G</OBJECT_ID><CENTER_NAME>EARTH</CENTER_NAME><REF_FRAME>TEME</REF_FRAME><TIME_SYSTEM>UTC</TIME_SYSTEM><MEAN_ELEMENT_THEORY>SGP4</MEAN_ELEMENT_THEORY></metadata><data><meanElements><EPOCH>2024-08-31T22:08:33.942048</EPOCH><MEAN_MOTION>14.43594339</MEAN_MOTION><ECCENTRICITY>.0003854</ECCENTRICITY><INCLINATION>45.0150</INCLINATION><RA_OF_ASC_NODE>314.7707</RA_OF_ASC_NODE><ARG_OF_PERICENTER>248.6100</ARG_OF_PERICENTER><MEAN_ANOMALY>282.0011</MEAN_ANOMALY></meanElements><tleParameters><EPHEMERIS_TYPE>0</EPHEMERIS_TYPE><CLASSIFICATION_TYPE>U</CLASSIFICATION_TYPE><NORAD_CAT_ID>25118</NORAD_CAT_ID><ELEMENT_SET_NO>999</ELEMENT_SET_NO><REV_AT_EPOCH>39968</REV_AT_EPOCH><BSTAR>.1705E-2</BSTAR><MEAN_MOTION_DOT>.5696E-4</MEAN_MOTION_DOT><MEAN_MOTION_DDOT>0</MEAN_MOTION_DDOT></tleParameters></data></segment></body></omm>
<omm id="CCSDS_OMM_VERS" version="2.0">
<header><CREATION_DATE/><ORIGINATOR/></header><body><segment><metadata><OBJECT_NAME>ORBCOMM FM07</OBJECT_NAME><OBJECT_ID>1997-084H</OBJECT_ID><CENTER_NAME>EARTH</CENTER_NAME><REF_FRAME>TEME</REF_FRAME><TIME_SYSTEM>UTC</TIME_SYSTEM><MEAN_ELEMENT_THEORY>SGP4</MEAN_ELEMENT_THEORY></metadata><data><meanElements><EPOCH>2024-09-01T03:58:08.423328</EPOCH><MEAN_MOTION>14.43494912</MEAN_MOTION><ECCENTRICITY>.0004717</ECCENTRICITY><INCLINATION>45.0144</INCLINATION><RA_OF_ASC_NODE>314.2243</RA_OF_ASC_NODE><ARG_OF_PERICENTER>228.4373</ARG_OF_PERICENTER><MEAN_ANOMALY>131.6074</MEAN_ANOMALY></meanElements><tleParameters><EPHEMERIS_TYPE>0</EPHEMERIS_TYPE><CLASSIFICATION_TYPE>U</CLASSIFICATION_TYPE><NORAD_CAT_ID>25119</NORAD_CAT_ID><ELEMENT_SET_NO>999</ELEMENT_SET_NO><REV_AT_EPOCH>39973</REV_AT_EPOCH><BSTAR>.16458E-2</BSTAR><MEAN_MOTION_DOT>.5481E-4</MEAN_MOTION_DOT><MEAN_MOTION_DDOT>0</MEAN_MOTION_DDOT></tleParameters></data></segment></body></omm>
<omm id="CCSDS_OMM_VERS" version="2.0">
<header><CREATION_DATE/><ORIGINATOR/></header><body><segment><metadata><OBJECT_NAME>ORBCOMM FM03</OBJECT_NAME><OBJECT_ID>1998-007B</OBJECT_ID><CENTER_NAME>EARTH</CENTER_NAME><REF_FRAME>TEME</REF_FRAME><TIME_SYSTEM>UTC</TIME_SYSTEM><MEAN_ELEMENT_THEORY>SGP4</MEAN_ELEMENT_THEORY></metadata><data><meanElements><EPOCH>2024-08-31T22:22:24.390336</EPOCH><MEAN_MOTION>14.32765768</MEAN_MOTION><ECCENTRICITY>.0045716</ECCENTRICITY><INCLINATION>107.9739</INCLINATION><RA_OF_ASC_NODE>262.0197</RA_OF_ASC_NODE><ARG_OF_PERICENTER>32.4718</ARG_OF_PERICENTER><MEAN_ANOMALY>327.9219</MEAN_ANOMALY></meanElements><tleParameters><EPHEMERIS_TYPE>0</EPHEMERIS_TYPE><CLASSIFICATION_TYPE>U</CLASSIFICATION_TYPE><NORAD_CAT_ID>25158</NORAD_CAT_ID><ELEMENT_SET_NO>999</ELEMENT_SET_NO><REV_AT_EPOCH>38258</REV_AT_EPOCH><BSTAR>.13651E-2</BSTAR><MEAN_MOTION_DOT>.364E-4</MEAN_MOTION_DOT><MEAN_MOTION_DDOT>0</MEAN_MOTION_DDOT></tleParameters></data></segment></body></omm>
<omm id="CCSDS_OMM_VERS" version="2.0">
<header><CREATION_DATE/><ORIGINATOR/></header><body><segment><metadata><OBJECT_NAME>ORBCOMM FM04</OBJECT_NAME><OBJECT_ID>1998-007C</OBJECT_ID><CENTER_NAME>EARTH</CENTER_NAME><REF_FRAME>TEME</REF_FRAME><TIME_SYSTEM>UTC</TIME_SYSTEM><MEAN_ELEMENT_THEORY>SGP4</MEAN_ELEMENT_THEORY></metadata><data><meanElements><EPOCH>2024-08-31T21:35:26.739456</EPOCH><MEAN_MOTION>14.33035474</MEAN_MOTION><ECCENTRICITY>.0041355</ECCENTRICITY><INCLINATION>107.9722</INCLINATION><RA_OF_ASC_NODE>264.9704</RA_OF_ASC_NODE><ARG_OF_PERICENTER>29.9151</ARG_OF_PERICENTER><MEAN_ANOMALY>330.4340</MEAN_ANOMALY></meanElements><tleParameters><EPHEMERIS_TYPE>0</EPHEMERIS_TYPE><CLASSIFICATION_TYPE>U</CLASSIFICATION_TYPE><NORAD_CAT_ID>25159</NORAD_CAT_ID><ELEMENT_SET_NO>999</ELEMENT_SET_NO><REV_AT_EPOCH>38275</REV_AT_EPOCH><BSTAR>.15086E-2</BSTAR><MEAN_MOTION_DOT>.405E-4</MEAN_MOTION_DOT><MEAN_MOTION_DDOT>0</MEAN_MOTION_DDOT></tleParameters></data></segment></body></omm>
<omm id="CCSDS_OMM_VERS" version="2.0">
<header><CREATION_DATE/><ORIGINATOR/></header><body><segment><metadata><OBJECT_NAME>ORBCOMM FM17</OBJECT_NAME><OBJECT_ID>1998-046A</OBJECT_ID><CENTER_NAME>EARTH</CENTER_NAME><REF_FRAME>TEME</REF_FRAME><TIME_SYSTEM>UTC</TIME_SYSTEM><MEAN_ELEMENT_THEORY>SGP4</MEAN_ELEMENT_THEORY></metadata><data><meanElements><EPOCH>2024-09-01T04:05:37.237632</EPOCH><MEAN_MOTION>14.33620481</MEAN_MOTION><ECCENTRICITY>.0001648</ECCENTRICITY><INCLINATION>44.9933</INCLINATION><RA_OF_ASC_NODE>180.3015</RA_OF_ASC_NODE><ARG_OF_PERICENTER>250.3879</ARG_OF_PERICENTER><MEAN_ANOMALY>109.6789</MEAN_ANOMALY></meanElements><tleParameters><EPHEMERIS_TYPE>0</EPHEMERIS_TYPE><CLASSIFICATION_TYPE>U</CLASSIFICATION_TYPE><NORAD_CAT_ID>25413</NORAD_CAT_ID><ELEMENT_SET_NO>999</ELEMENT_SET_NO><REV_AT_EPOCH>36184</REV_AT_EPOCH><BSTAR>.14583E-2</BSTAR><MEAN_MOTION_DOT>.3938E-4</MEAN_MOTION_DOT><MEAN_MOTION_DDOT>0</MEAN_MOTION_DDOT></tleParameters></data></segment></body></omm>
<omm id="CCSDS_OMM_VERS" version="2.0">
<header><CREATION_DATE/><ORIGINATOR/></header><body><segment><metadata><OBJECT_NAME>ORBCOMM FM19</OBJECT_NAME><OBJECT_ID>1998-046C</OBJECT_ID><CENTER_NAME>EARTH</CENTER_NAME><REF_FRAME>TEME</REF_FRAME><TIME_SYSTEM>UTC</TIME_SYSTEM><MEAN_ELEMENT_THEORY>SGP4</MEAN_ELEMENT_THEORY></metadata><data><meanElements><EPOCH>2024-09-01T03:46:40.431360</EPOCH><MEAN_MOTION>14.36385781</MEAN_MOTION><ECCENTRICITY>.0002449</ECCENTRICITY><INCLINATION>44.9937</INCLINATION><RA_OF_ASC_NODE>106.5413</RA_OF_ASC_NODE><ARG_OF_PERICENTER>252.5592</ARG_OF_PERICENTER><MEAN_ANOMALY>259.0290</MEAN_ANOMALY></meanElements><tleParameters><EPHEMERIS_TYPE>0</EPHEMERIS_TYPE><CLASSIFICATION_TYPE>U</CLASSIFICATION_TYPE><NORAD_CAT_ID>25415</NORAD_CAT_ID><ELEMENT_SET_NO>999</ELEMENT_SET_NO><REV_AT_EPOCH>36281</REV_AT_EPOCH><BSTAR>.1483E-2</BSTAR><MEAN_MOTION_DOT>.4243E-4</MEAN_MOTION_DOT><MEAN_MOTION_DDOT>0</MEAN_MOTION_DDOT></tleParameters></data></segment></body></omm>

</ndm>
