ORBCOMM FM05            
1 25117U 97084F   24244.52188943  .00005148  00000+0  15486-2 0  9993
2 25117  45.0156 316.5963 0004272 235.0633 124.9816 14.43485051398713
ORBCOMM FM06            
1 25118U 97084G   24244.92261507  .00005696  00000+0  17050-2 0  9993
2 25118  45.0150 314.7707 0003854 248.6100 282.0011 14.43594339399688
ORBCOMM FM07            
1 25119U 97084H   24245.16537527  .00005481  00000+0  16458-2 0  9992
2 25119  45.0144 314.2243 0004717 228.4373 131.6074 14.43494912399739
ORBCOMM FM03            
1 25158U 98007B   24244.93222674  .00003640  00000+0  13651-2 0  9996
2 25158 107.9739 262.0197 0045716  32.4718 327.9219 14.32765768382582
ORBCOMM FM04            
1 25159U 98007C   24244.89961504  .00004050  00000+0  15086-2 0  9994
2 25159 107.9722 264.9704 0041355  29.9151 330.4340 14.33035474382755
ORBCOMM FM17            
1 25413U 98046A   24245.17056988  .00003938  00000+0  14583-2 0  9998
2 25413  44.9933 180.3015 0001648 250.3879 109.6789 14.33620481361844
ORBCOMM FM19            
1 25415U 98046C   24245.15741240  .00004243  00000+0  14830-2 0  9995
2 25415  44.9937 106.5413 0002449 252.5592 259.0290 14.36385781362817
